STARLINK-1643           
1 46136U 20057V   25253.32546659  .00064192  00000+0  91744-3 0  9990
2 46136  53.0518  18.4693 0009898 262.1218  97.8669 15.55608246279275
STARLINK-1586           
1 46137U 20057W   25253.58335648  .00375036  65467-4  10382-2 0  9996
2 46137  53.0401 328.6914 0014338 326.6935 239.3193 15.93145540  5969
STARLINK-1596           
1 46141U 20057AA  25253.30756053  .00017177  00000+0  77538-3 0  9991
2 46141  53.0570 353.9461 0005093 356.6864   3.4097 15.21092162279611
STARLINK-1597           
1 46142U 20057AB  25253.44685209  .00000192  00000+0  31786-4 0  9996
2 46142  53.0555  45.7593 0001224  90.7352 269.3777 15.06398787278899
STARLINK-1606           
1 46144U 20057AD  25253.34549114  .00000566  00000+0  56894-4 0  9993
2 46144  53.0570  26.2185 0001179  94.8613 265.2510 15.06397728267413
STARLINK-1608           
1 46146U 20057AF  25253.45790508  .00001178  00000+0  97958-4 0  9998
2 46146  53.0557  45.7105 0001318  91.7099 268.4041 15.06401501278902
STARLINK-1629           
1 46150U 20057AK  25253.58335648  .00058800  00000+0  16109-2 0  9998
2 46150  53.0367  23.8193 0003491 312.0916  89.3557 15.36768286  5810
STARLINK-1636           
1 46153U 20057AN  25253.58335648  .00739943  25627-3  15270-2 0  9999
2 46153  53.0128 315.7705 0012270 333.4712  43.1509 15.98542421  6046
STARLINK-1642           
1 46154U 20057AP  25253.38677255  .00121583  00000+0  34112-2 0  9996
2 46154  53.0553  31.7600 0004990 279.2450  80.7987 15.35657619279095
STARLINK-1667           
1 46155U 20057AQ  25252.61609487  .00046517  00000+0  19050-2 0  9991
2 46155  53.0430   2.4491 0006139 275.0005  85.0290 15.23853516280672
STARLINK-1545           
1 46156U 20057AR  25253.34180401  .00002191  00000+0  16598-3 0  9998
2 46156  53.0567  26.2354 0001403 103.6177 256.4968 15.06393479280417
STARLINK-1587           
1 46157U 20057AS  25253.32889989  .00002648  00000+0  19653-3 0  9996
2 46157  53.0572   6.2893 0001377  92.0341 268.0806 15.06411702279445
STARLINK-1595           
1 46159U 20057AU  25253.43211465  .00001794  00000+0  13929-3 0  9999
2 46159  53.0562  45.8275 0001107  78.9184 281.1930 15.06397597280157
STARLINK-1598           
1 46160U 20057AV  25253.35654798  .00000935  00000+0  81631-4 0  9994
2 46160  53.0559  26.1647 0001040 102.6627 257.4479 15.06396572280418
STARLINK-1612           
1 46164U 20057AZ  25253.31517623  .00054906  00000+0  19667-2 0  9994
2 46164  53.0518 357.7608 0007283 294.4958  65.5280 15.28222722280821
STARLINK-1626           
1 46167U 20057BC  25253.46529044  .00000006  00000+0  19297-4 0  9996
2 46167  53.0560  45.6780 0001358 100.0021 260.1122 15.06392393278907
