[{"OBJECT_NAME":"STARLINK-1643","OBJECT_ID":"2020-057V","EPOCH":"2025-09-10T07:48:40.313376","MEAN_MOTION":15.55608246,"ECCENTRICITY":0.00098989,"INCLINATION":53.0518,"RA_OF_ASC_NODE":18.4693,"ARG_OF_PERICENTER":262.1218,"MEAN_ANOMALY":97.8669,"EPHEMERIS_TYPE":0,"CLASSIFICATION_TYPE":"U","NORAD_CAT_ID":46136,"ELEMENT_SET_NO":999,"REV_AT_EPOCH":27927,"BSTAR":0.00091744268,"MEAN_MOTION_DOT":0.00064192,"MEAN_MOTION_DDOT":0},{"OBJECT_NAME":"STARLINK-1586","OBJECT_ID":"2020-057W","EPOCH":"2025-09-10T14:00:01.999872","MEAN_MOTION":15.9314554,"ECCENTRICITY":0.00143388,"INCLINATION":53.0401,"RA_OF_ASC_NODE":328.6914,"ARG_OF_PERICENTER":326.6935,"MEAN_ANOMALY":239.3193,"EPHEMERIS_TYPE":0,"CLASSIFICATION_TYPE":"U","NORAD_CAT_ID":46137,"ELEMENT_SET_NO":999,"REV_AT_EPOCH":596,"BSTAR":0.0010382305,"MEAN_MOTION_DOT":0.00375036,"MEAN_MOTION_DDOT":6.5467272e-5},{"OBJECT_NAME":"STARLINK-1596","OBJECT_ID":"2020-057AA","EPOCH":"2025-09-10T07:22:53.229792","MEAN_MOTION":15.21092162,"ECCENTRICITY":0.00050934,"INCLINATION":53.057,"RA_OF_ASC_NODE":353.9461,"ARG_OF_PERICENTER":356.6864,"MEAN_ANOMALY":3.4097,"EPHEMERIS_TYPE":0,"CLASSIFICATION_TYPE":"U","NORAD_CAT_ID":46141,"ELEMENT_SET_NO":999,"REV_AT_EPOCH":27961,"BSTAR":0.00077537615,"MEAN_MOTION_DOT":0.00017177,"MEAN_MOTION_DDOT":0},{"OBJECT_NAME":"STARLINK-1597","OBJECT_ID":"2020-057AB","EPOCH":"2025-09-10T10:43:28.020576","MEAN_MOTION":15.06398787,"ECCENTRICITY":0.00012249,"INCLINATION":53.0555,"RA_OF_ASC_NODE":45.7593,"ARG_OF_PERICENTER":90.7352,"MEAN_ANOMALY":269.3777,"EPHEMERIS_TYPE":0,"CLASSIFICATION_TYPE":"U","NORAD_CAT_ID":46142,"ELEMENT_SET_NO":999,"REV_AT_EPOCH":27889,"BSTAR":3.1785866e-5,"MEAN_MOTION_DOT":1.92e-6,"MEAN_MOTION_DDOT":0},{"OBJECT_NAME":"STARLINK-1606","OBJECT_ID":"2020-057AD","EPOCH":"2025-09-10T08:17:30.434496","MEAN_MOTION":15.06397728,"ECCENTRICITY":0.00011795,"INCLINATION":53.057,"RA_OF_ASC_NODE":26.2185,"ARG_OF_PERICENTER":94.8613,"MEAN_ANOMALY":265.251,"EPHEMERIS_TYPE":0,"CLASSIFICATION_TYPE":"U","NORAD_CAT_ID":46144,"ELEMENT_SET_NO":999,"REV_AT_EPOCH":26741,"BSTAR":5.6894294e-5,"MEAN_MOTION_DOT":5.66e-6,"MEAN_MOTION_DDOT":0},{"OBJECT_NAME":"STARLINK-1608","OBJECT_ID":"2020-057AF","EPOCH":"2025-09-10T10:59:22.998912","MEAN_MOTION":15.06401501,"ECCENTRICITY":0.0001318,"INCLINATION":53.0557,"RA_OF_ASC_NODE":45.7105,"ARG_OF_PERICENTER":91.7099,"MEAN_ANOMALY":268.4041,"EPHEMERIS_TYPE":0,"CLASSIFICATION_TYPE":"U","NORAD_CAT_ID":46146,"ELEMENT_SET_NO":999,"REV_AT_EPOCH":27890,"BSTAR":9.7957865e-5,"MEAN_MOTION_DOT":1.178e-5,"MEAN_MOTION_DDOT":0},{"OBJECT_NAME":"STARLINK-1629","OBJECT_ID":"2020-057AK","EPOCH":"2025-09-10T14:00:01.999872","MEAN_MOTION":15.36768286,"ECCENTRICITY":0.00034916,"INCLINATION":53.0367,"RA_OF_ASC_NODE":23.8193,"ARG_OF_PERICENTER":312.0916,"MEAN_ANOMALY":89.3557,"EPHEMERIS_TYPE":0,"CLASSIFICATION_TYPE":"U","NORAD_CAT_ID":46150,"ELEMENT_SET_NO":999,"REV_AT_EPOCH":581,"BSTAR":0.0016108956,"MEAN_MOTION_DOT":0.000588,"MEAN_MOTION_DDOT":0},{"OBJECT_NAME":"STARLINK-1636","OBJECT_ID":"2020-057AN","EPOCH":"2025-09-10T14:00:01.999872","MEAN_MOTION":15.98542421,"ECCENTRICITY":0.00122709,"INCLINATION":53.0128,"RA_OF_ASC_NODE":315.7705,"ARG_OF_PERICENTER":333.4712,"MEAN_ANOMALY":43.1509,"EPHEMERIS_TYPE":0,"CLASSIFICATION_TYPE":"U","NORAD_CAT_ID":46153,"ELEMENT_SET_NO":999,"REV_AT_EPOCH":604,"BSTAR":0.0015269755,"MEAN_MOTION_DOT":0.00739943,"MEAN_MOTION_DDOT":0.00025627437},{"OBJECT_NAME":"STARLINK-1642","OBJECT_ID":"2020-057AP","EPOCH":"2025-09-10T09:16:57.148320","MEAN_MOTION":15.35657619,"ECCENTRICITY":0.00049902,"INCLINATION":53.0553,"RA_OF_ASC_NODE":31.76,"ARG_OF_PERICENTER":279.245,"MEAN_ANOMALY":80.7987,"EPHEMERIS_TYPE":0,"CLASSIFICATION_TYPE":"U","NORAD_CAT_ID":46154,"ELEMENT_SET_NO":999,"REV_AT_EPOCH":27909,"BSTAR":0.0034111878,"MEAN_MOTION_DOT":0.00121583,"MEAN_MOTION_DDOT":0},{"OBJECT_NAME":"STARLINK-1667","OBJECT_ID":"2020-057AQ","EPOCH":"2025-09-09T14:47:10.596768","MEAN_MOTION":15.23853516,"ECCENTRICITY":0.00061392,"INCLINATION":53.043,"RA_OF_ASC_NODE":2.4491,"ARG_OF_PERICENTER":275.0005,"MEAN_ANOMALY":85.029,"EPHEMERIS_TYPE":0,"CLASSIFICATION_TYPE":"U","NORAD_CAT_ID":46155,"ELEMENT_SET_NO":999,"REV_AT_EPOCH":28067,"BSTAR":0.0019049944,"MEAN_MOTION_DOT":0.00046517,"MEAN_MOTION_DDOT":0},{"OBJECT_NAME":"STARLINK-1545","OBJECT_ID":"2020-057AR","EPOCH":"2025-09-10T08:12:11.866464","MEAN_MOTION":15.06393479,"ECCENTRICITY":0.00014031,"INCLINATION":53.0567,"RA_OF_ASC_NODE":26.2354,"ARG_OF_PERICENTER":103.6177,"MEAN_ANOMALY":256.4968,"EPHEMERIS_TYPE":0,"CLASSIFICATION_TYPE":"U","NORAD_CAT_ID":46156,"ELEMENT_SET_NO":999,"REV_AT_EPOCH":28041,"BSTAR":0.00016598385,"MEAN_MOTION_DOT":2.191e-5,"MEAN_MOTION_DDOT":0},{"OBJECT_NAME":"STARLINK-1587","OBJECT_ID":"2020-057AS","EPOCH":"2025-09-10T07:53:36.950496","MEAN_MOTION":15.06411702,"ECCENTRICITY":0.00013774,"INCLINATION":53.0572,"RA_OF_ASC_NODE":6.2893,"ARG_OF_PERICENTER":92.0341,"MEAN_ANOMALY":268.0806,"EPHEMERIS_TYPE":0,"CLASSIFICATION_TYPE":"U","NORAD_CAT_ID":46157,"ELEMENT_SET_NO":999,"REV_AT_EPOCH":27944,"BSTAR":0.00019653089,"MEAN_MOTION_DOT":2.648e-5,"MEAN_MOTION_DDOT":0},{"OBJECT_NAME":"STARLINK-1595","OBJECT_ID":"2020-057AU","EPOCH":"2025-09-10T10:22:14.705760","MEAN_MOTION":15.06397597,"ECCENTRICITY":0.00011078,"INCLINATION":53.0562,"RA_OF_ASC_NODE":45.8275,"ARG_OF_PERICENTER":78.9184,"MEAN_ANOMALY":281.193,"EPHEMERIS_TYPE":0,"CLASSIFICATION_TYPE":"U","NORAD_CAT_ID":46159,"ELEMENT_SET_NO":999,"REV_AT_EPOCH":28015,"BSTAR":0.00013929031,"MEAN_MOTION_DOT":1.794e-5,"MEAN_MOTION_DDOT":0},{"OBJECT_NAME":"STARLINK-1598","OBJECT_ID":"2020-057AV","EPOCH":"2025-09-10T08:33:25.745472","MEAN_MOTION":15.06396572,"ECCENTRICITY":0.00010407,"INCLINATION":53.0559,"RA_OF_ASC_NODE":26.1647,"ARG_OF_PERICENTER":102.6627,"MEAN_ANOMALY":257.4479,"EPHEMERIS_TYPE":0,"CLASSIFICATION_TYPE":"U","NORAD_CAT_ID":46160,"ELEMENT_SET_NO":999,"REV_AT_EPOCH":28041,"BSTAR":8.1630802e-5,"MEAN_MOTION_DOT":9.35e-6,"MEAN_MOTION_DDOT":0},{"OBJECT_NAME":"STARLINK-1612","OBJECT_ID":"2020-057AZ","EPOCH":"2025-09-10T07:33:51.226272","MEAN_MOTION":15.28222722,"ECCENTRICITY":0.00072833,"INCLINATION":53.0518,"RA_OF_ASC_NODE":357.7608,"ARG_OF_PERICENTER":294.4958,"MEAN_ANOMALY":65.528,"EPHEMERIS_TYPE":0,"CLASSIFICATION_TYPE":"U","NORAD_CAT_ID":46164,"ELEMENT_SET_NO":999,"REV_AT_EPOCH":28082,"BSTAR":0.0019666985,"MEAN_MOTION_DOT":0.00054906,"MEAN_MOTION_DDOT":0},{"OBJECT_NAME":"STARLINK-1626","OBJECT_ID":"2020-057BC","EPOCH":"2025-09-10T11:10:01.094016","MEAN_MOTION":15.06392393,"ECCENTRICITY":0.00013582,"INCLINATION":53.056,"RA_OF_ASC_NODE":45.678,"ARG_OF_PERICENTER":100.0021,"MEAN_ANOMALY":260.1122,"EPHEMERIS_TYPE":0,"CLASSIFICATION_TYPE":"U","NORAD_CAT_ID":46167,"ELEMENT_SET_NO":999,"REV_AT_EPOCH":27890,"BSTAR":1.9296676e-5,"MEAN_MOTION_DOT":6.0e-8,"MEAN_MOTION_DDOT":0}]
